OBJECT_NAME,OBJECT_ID,EPOCH,MEAN_MOTION,ECCENTRICITY,INCLINATION,RA_OF_ASC_NODE,ARG_OF_PERICENTER,MEAN_ANOMALY,EPHEMERIS_TYPE,CLASSIFICATION_TYPE,NORAD_CAT_ID,ELEMENT_SET_NO,REV_AT_EPOCH,BSTAR,MEAN_MOTION_DOT,MEAN_MOTION_DDOT
ONEWEB-0701,2024-188P,2026-06-08T09:01:51.299616,13.10370694,.0001311,87.8843,38.0202,107.6919,252.4351,0,U,61607,999,8215,-.16164E-2,-.552E-5,0
ONEWEB-0702,2024-188Q,2026-06-08T04:03:31.486752,13.11416149,.0001658,87.8911,22.7804,118.7699,241.3595,0,U,61608,999,8330,.34514E-5,.14E-6,0
ONEWEB-0704,2024-188R,2026-06-08T08:45:08.502336,13.10369828,.0001859,87.8851,38.0110,117.0457,243.0860,0,U,61609,999,8213,-.23447E-3,-.69E-6,0
ONEWEB-0705,2024-188S,2026-06-08T08:52:19.111296,13.10367691,.0002433,87.8847,38.0156,105.5474,254.5922,0,U,61610,999,7430,.74338E-4,.39E-6,0
ONEWEB-0706,2024-188T,2026-06-08T08:30:48.640032,13.10370824,.0001862,87.8842,38.0243,101.5364,258.5973,0,U,61611,999,8222,.12571E-2,.451E-5,0
ONEWEB-0707,2024-188U,2026-06-08T08:40:21.740736,13.10369841,.0001789,87.8845,38.0165,101.0709,259.0620,0,U,61612,999,8216,.30361E-3,.119E-5,0
ONEWEB-0708,2024-188V,2026-06-08T09:06:38.096640,13.10371371,.0002311,87.8840,38.0321,87.6398,272.4994,0,U,61613,999,8214,-.16805E-2,-.574E-5,0
