ONEWEB-0701             
1 61607U 24188P   26159.37628819 -.00000552  00000+0 -16164-2 0  9993
2 61607  87.8843  38.0202 0001311 107.6919 252.4351 13.10370694 82156
ONEWEB-0702             
1 61608U 24188Q   26159.16911443  .00000014  00000+0  34514-5 0  9992
2 61608  87.8911  22.7804 0001658 118.7699 241.3595 13.11416149 83305
ONEWEB-0704             
1 61609U 24188R   26159.36468174 -.00000069  00000+0 -23447-3 0  9996
2 61609  87.8851  38.0110 0001859 117.0457 243.0860 13.10369828 82130
ONEWEB-0705             
1 61610U 24188S   26159.36966564  .00000039  00000+0  74338-4 0  9995
2 61610  87.8847  38.0156 0002433 105.5474 254.5922 13.10367691 74309
ONEWEB-0706             
1 61611U 24188T   26159.35472963  .00000451  00000+0  12571-2 0  9997
2 61611  87.8842  38.0243 0001862 101.5364 258.5973 13.10370824 82223
ONEWEB-0707             
1 61612U 24188U   26159.36136274  .00000119  00000+0  30361-3 0  9990
2 61612  87.8845  38.0165 0001789 101.0709 259.0620 13.10369841 82161
ONEWEB-0708             
1 61613U 24188V   26159.37960760 -.00000574  00000+0 -16805-2 0  9990
2 61613  87.8840  38.0321 0002311  87.6398 272.4994 13.10371371 82148
